LEMUR-2-ROUNDTRIPPER    
1 62711U 25009DG  26187.72109382  .00007246  00000+0  52678-3 0  9998
2 62711  97.7223 270.3746 0004479  83.6436 276.5299 15.04132357 80562
LEMUR-2-MYNAMEISJEFF    
1 62712U 25009DH  26187.71953348  .00007329  00000+0  53289-3 0  9998
2 62712  97.7274 270.7657 0003591 117.5070 242.6521 15.04124598 80569
LEMUR-2-LEIA-PHILIP     
1 63246U 25052AN  26187.64991578  .00002154  00000+0  19035-3 0  9990
2 63246  97.6815  79.2713 0004805 141.4214 218.7352 14.97373986 71588
LEMUR-2-LIA-MARTIN      
1 63248U 25052AQ  26187.64800424  .00004626  00000+0  39684-3 0  9999
2 63248  97.6861  79.7730 0005203 111.5295 248.6482 14.97976249 71593
LEMUR-2-DELOITTE-1      
1 63259U 25052BB  26187.69387655  .00003288  00000+0  28529-3 0  9991
2 63259  97.6883  80.1499 0002286  65.5794 294.5666 14.97742162 71619
LEMUR-2-EMERSONROSE     
1 63261U 25052BD  26187.85006093  .00003871  00000+0  32228-3 0  9995
2 63261  97.6870  80.8979 0002731  74.1277 286.0247 14.99238237 71688
LEMUR-2-MARACHE-FRAN    
1 63262U 25052BE  26187.67842289  .00003628  00000+0  29436-3 0  9998
2 63262  97.6869  81.0855 0004460 292.5592  67.5160 15.00278631 71681
LEMUR-2-THEFALCONER     
1 63264U 25052BG  26187.65631691  .00003974  00000+0  34563-3 0  9992
2 63264  97.6843  79.7114 0000945  28.8650 331.2624 14.97530588 71601
LEMUR-2-UNTITLED-SC     
1 63351U 25061A   26187.85626640  .00002583  00000+0  14703-3 0  9998
2 63351  97.5648 163.0768 0018334 191.5040 168.5775 15.13610698 70566
LEMUR-2-ESPERANZA       
1 63352U 25061B   26187.69998076  .00004120  00000+0  23161-3 0  9993
2 63352  97.5653 163.0196 0017960 191.3991 168.6836 15.13717061 70544
LEMUR-2-KREMPEL-BRO2    
1 63353U 25061C   26187.45699132  .00003060  00000+0  17087-3 0  9991
2 63353  97.5703 163.3364 0019039 184.8544 175.2506 15.14139561 70521
LEMUR-2-THERMORAPTOR    
1 63354U 25061D   26187.83452242  .00002722  00000+0  15208-3 0  9990
2 63354  97.5706 163.7910 0018857 182.3790 177.7355 15.14223272 70587
LEMUR-2-NEUROSPICY      
1 63355U 25061E   26187.73861314  .00003629  00000+0  20106-3 0  9994
2 63355  97.5634 163.3068 0016596 185.6579 174.4468 15.14342318 70578
LEMUR-2-TILLINFINITY    
1 63356U 25061F   26187.43608049  .00003150  00000+0  17208-3 0  9994
2 63356  97.5620 163.3100 0018167 175.1118 185.0295 15.14922509 70550
LEMUR-2-KREMPEL-BRO1    
1 63357U 25061G   26187.74231852  .00003734  00000+0  20433-3 0  9995
2 63357  97.5621 163.5252 0018813 175.6075 184.5326 15.14733329 70590
LEMUR-2-LANGER2SPACE    
1 63358U 25061H   26187.44237065  .00003084  00000+0  17104-3 0  9994
2 63358  97.5625 163.0333 0016530 184.8273 175.2802 15.14424704 70530
LEMUR-2-BALTO           
1 63395U 25052BH  26187.66302122  .00004754  00000+0  38376-3 0  9995
2 63395  97.6926  81.0497 0005705   0.8903 359.2329 15.00309534 71688
LEMUR-2-KRISH           
1 64561U 25135AK  26187.73511008  .00004948  00000+0  44172-3 0  9992
2 64561  97.7758 302.4794 0001717 101.7951 258.3462 14.96397260 56846
LEMUR-2-HUBBLE-4        
1 64565U 25135AP  26187.63341429  .00001243  00000+0  12298-3 0  9992
2 64565  97.7713 301.3116 0001904 187.3980 172.7211 14.93667872 56776
LEMUR-2-SEJONG-2        
1 64586U 25135BL  26187.82561774  .00002843  00000+0  25302-3 0  9990
2 64586  97.7708 302.7156 0003122 256.0613 104.0262 14.96872498 56884
LEMUR-2-HUBBLE-5        
1 64840U 25135BT  26187.31043794  .00001509  00000+0  14618-3 0  9990
2 64840  97.7734 301.6518 0004093 274.4902  85.5850 14.94194144 56765
LEMUR-2-KARENDARRELL    
1 64841U 25135BU  26187.26028863  .00008052  00000+0  64409-3 0  9998
2 64841  97.7697 303.4406 0011512 133.2571 226.9615 15.00415021 56878
LEMUR-2-LUCILLE-ROSE    
1 65403U 25135BV  26187.56715682  .00005807  00000+0  46570-3 0  9992
2 65403  97.7720 303.7815 0013752 215.7297 144.3008 15.00418506 51545
LEMUR-2-AFFIE-WAUWIE    
1 66295U 25248C   26186.82496654  .00022785  00000+0  82702-3 0  9991
2 66295  45.3926  13.9564 0008364 202.7682 157.2838 15.27976863 37441
LEMUR-2-DEANANDMAEVE    
1 66678U 25276N   26187.14438524  .00007494  00000+0  35110-3 0  9996
2 66678  97.4199 260.3076 0004246 297.3184  62.7619 15.19983006 33298
LEMUR-2-STAS-GORBUK     
1 66686U 25276W   26187.69026917  .00005069  00000+0  24126-3 0  9995
2 66686  97.4234 260.8973 0003531 291.0562  69.0295 15.19599800 33379
LEMUR-2-TEODOR          
1 66768U 25276DG  26187.65263794  .00004534  00000+0  20592-3 0  9997
2 66768  97.4138 261.1214 0002363  97.1233 263.0271 15.21275980 33404
LEMUR-2-LAILA           
1 66776U 25276DQ  26187.68947196  .00005236  00000+0  23577-3 0  9990
2 66776  97.4163 261.2907 0002860 107.0369 253.1180 15.21500711 33417
LEMUR-2-CELIJO-SB-PK    
1 66781U 25276DW  26187.71436506  .00004630  00000+0  37444-3 0  9993
2 66781  97.5200 257.8487 0007471  85.1218 275.0859 15.00225368 25553
LEMUR-2-FINNIAN         
1 66782U 25276DX  26187.15305343  .00002987  00000+0  24129-3 0  9995
2 66782  97.5336 257.5504 0008128  31.0182 329.1520 15.00543596 22842
