OBJECT_NAME,OBJECT_ID,EPOCH,MEAN_MOTION,ECCENTRICITY,INCLINATION,RA_OF_ASC_NODE,ARG_OF_PERICENTER,MEAN_ANOMALY,EPHEMERIS_TYPE,CLASSIFICATION_TYPE,NORAD_CAT_ID,ELEMENT_SET_NO,REV_AT_EPOCH,BSTAR,MEAN_MOTION_DOT,MEAN_MOTION_DDOT
LEMUR-2-ROUNDTRIPPER,2025-009DG,2026-07-06T17:18:22.506048,15.04132357,.0004479,97.7223,270.3746,83.6436,276.5299,0,U,62711,999,8056,.52678E-3,.7246E-4,0
LEMUR-2-MYNAMEISJEFF,2025-009DH,2026-07-06T17:16:07.692672,15.04124598,.0003591,97.7274,270.7657,117.5070,242.6521,0,U,62712,999,8056,.53289E-3,.7329E-4,0
LEMUR-2-LEIA-PHILIP,2025-052AN,2026-07-06T15:35:52.723392,14.97373986,.0004805,97.6815,79.2713,141.4214,218.7352,0,U,63246,999,7158,.19035E-3,.2154E-4,0
LEMUR-2-LIA-MARTIN,2025-052AQ,2026-07-06T15:33:07.566336,14.97976249,.0005203,97.6861,79.7730,111.5295,248.6482,0,U,63248,999,7159,.39684E-3,.4626E-4,0
LEMUR-2-DELOITTE-1,2025-052BB,2026-07-06T16:39:10.933920,14.97742162,.0002286,97.6883,80.1499,65.5794,294.5666,0,U,63259,999,7161,.28529E-3,.3288E-4,0
LEMUR-2-EMERSONROSE,2025-052BD,2026-07-06T20:24:05.264352,14.99238237,.0002731,97.6870,80.8979,74.1277,286.0247,0,U,63261,999,7168,.32228E-3,.3871E-4,0
LEMUR-2-MARACHE-FRAN,2025-052BE,2026-07-06T16:16:55.737696,15.00278631,.000446,97.6869,81.0855,292.5592,67.5160,0,U,63262,999,7168,.29436E-3,.3628E-4,0
LEMUR-2-THEFALCONER,2025-052BG,2026-07-06T15:45:05.781024,14.97530588,.0000945,97.6843,79.7114,28.8650,331.2624,0,U,63264,999,7160,.34563E-3,.3974E-4,0
LEMUR-2-UNTITLED-SC,2025-061A,2026-07-06T20:33:01.416960,15.13610698,.0018334,97.5648,163.0768,191.5040,168.5775,0,U,63351,999,7056,.14703E-3,.2583E-4,0
LEMUR-2-ESPERANZA,2025-061B,2026-07-06T16:47:58.337664,15.13717061,.001796,97.5653,163.0196,191.3991,168.6836,0,U,63352,999,7054,.23161E-3,.412E-4,0
LEMUR-2-KREMPEL-BRO2,2025-061C,2026-07-06T10:58:04.050048,15.14139561,.0019039,97.5703,163.3364,184.8544,175.2506,0,U,63353,999,7052,.17087E-3,.306E-4,0
LEMUR-2-THERMORAPTOR,2025-061D,2026-07-06T20:01:42.737088,15.14223272,.0018857,97.5706,163.7910,182.3790,177.7355,0,U,63354,999,7058,.15208E-3,.2722E-4,0
LEMUR-2-NEUROSPICY,2025-061E,2026-07-06T17:43:36.175296,15.14342318,.0016596,97.5634,163.3068,185.6579,174.4468,0,U,63355,999,7057,.20106E-3,.3629E-4,0
LEMUR-2-TILLINFINITY,2025-061F,2026-07-06T10:27:57.354336,15.14922509,.0018167,97.5620,163.3100,175.1118,185.0295,0,U,63356,999,7055,.17208E-3,.315E-4,0
LEMUR-2-KREMPEL-BRO1,2025-061G,2026-07-06T17:48:56.320128,15.14733329,.0018813,97.5621,163.5252,175.6075,184.5326,0,U,63357,999,7059,.20433E-3,.3734E-4,0
LEMUR-2-LANGER2SPACE,2025-061H,2026-07-06T10:37:00.824160,15.14424704,.001653,97.5625,163.0333,184.8273,175.2802,0,U,63358,999,7053,.17104E-3,.3084E-4,0
LEMUR-2-BALTO,2025-052BH,2026-07-06T15:54:45.033408,15.00309534,.0005705,97.6926,81.0497,0.8903,359.2329,0,U,63395,999,7168,.38376E-3,.4754E-4,0
LEMUR-2-KRISH,2025-135AK,2026-07-06T17:38:33.510912,14.96397260,.0001717,97.7758,302.4794,101.7951,258.3462,0,U,64561,999,5684,.44172E-3,.4948E-4,0
LEMUR-2-HUBBLE-4,2025-135AP,2026-07-06T15:12:06.994656,14.93667872,.0001904,97.7713,301.3116,187.3980,172.7211,0,U,64565,999,5677,.12298E-3,.1243E-4,0
LEMUR-2-SEJONG-2,2025-135BL,2026-07-06T19:48:53.372736,14.96872498,.0003122,97.7708,302.7156,256.0613,104.0262,0,U,64586,999,5688,.25302E-3,.2843E-4,0
LEMUR-2-HUBBLE-5,2025-135BT,2026-07-06T07:27:01.838016,14.94194144,.00040937,97.7734,301.6518,274.4902,85.5850,0,U,64840,999,5676,.14617556E-3,.1509E-4,0
LEMUR-2-KARENDARRELL,2025-135BU,2026-07-06T06:14:48.937632,15.00415021,.00115125,97.7697,303.4406,133.2571,226.9615,0,U,64841,999,5687,.6440855E-3,.8052E-4,0
LEMUR-2-LUCILLE-ROSE,2025-135BV,2026-07-06T13:36:42.349248,15.00418506,.0013752,97.7720,303.7815,215.7297,144.3008,0,U,65403,999,5154,.4657E-3,.5807E-4,0
LEMUR-2-AFFIE-WAUWIE,2025-248C,2026-07-05T19:47:57.109056,15.27976863,.0008364,45.3926,13.9564,202.7682,157.2838,0,U,66295,999,3744,.82702E-3,.22785E-3,0
LEMUR-2-DEANANDMAEVE,2025-276N,2026-07-06T03:27:54.884736,15.19983006,.0004246,97.4199,260.3076,297.3184,62.7619,0,U,66678,999,3329,.3511E-3,.7494E-4,0
LEMUR-2-STAS-GORBUK,2025-276W,2026-07-06T16:33:59.256288,15.19599800,.0003531,97.4234,260.8973,291.0562,69.0295,0,U,66686,999,3337,.24126E-3,.5069E-4,0
LEMUR-2-TEODOR,2025-276DG,2026-07-06T15:39:47.918016,15.21275980,.0002363,97.4138,261.1214,97.1233,263.0271,0,U,66768,999,3340,.20592E-3,.4534E-4,0
LEMUR-2-LAILA,2025-276DQ,2026-07-06T16:32:50.377344,15.21500711,.000286,97.4163,261.2907,107.0369,253.1180,0,U,66776,999,3341,.23577E-3,.5236E-4,0
LEMUR-2-CELIJO-SB-PK,2025-276DW,2026-07-06T17:08:41.141184,15.00225368,.0007471,97.5200,257.8487,85.1218,275.0859,0,U,66781,999,2555,.37444E-3,.463E-4,0
LEMUR-2-FINNIAN,2025-276DX,2026-07-06T03:40:23.816352,15.00543596,.0008128,97.5336,257.5504,31.0182,329.1520,0,U,66782,999,2284,.24129E-3,.2987E-4,0
